{
  "type": "FeatureCollection",
  "features": [
    {
      "type": "Feature",
      "properties": {
        "norad_id": 39617,
        "name": "ASTRA 5B (EGNOS/PRN 123)",
        "group": "gnss",
        "lat": 0.028265335377796855,
        "lon": 174.57669201895004,
        "alt_km": 35785.68332136609,
        "timestamp": "2025-12-09T04:51:47.737591+00:00",
        "meta_object_name": "ASTRA 5B (EGNOS/PRN 123)",
        "meta_object_id": "2014-011B",
        "meta_epoch": "2025-12-08T18:51:08.184960",
        "meta_mean_motion": 1.00270106,
        "meta_eccentricity": 0.0004539,
        "meta_inclination": 0.0549,
        "meta_ra_of_asc_node": 28.7612,
        "meta_arg_of_pericenter": 233.4239,
        "meta_mean_anomaly": 121.8738,
        "meta_ephemeris_type": 0,
        "meta_classification_type": "U",
        "meta_norad_cat_id": 39617,
        "meta_element_set_no": 999,
        "meta_rev_at_epoch": 4275,
        "meta_bstar": 0,
        "meta_mean_motion_dot": 1.39e-06,
        "meta_mean_motion_ddot": 0,
        "tle_line1": "1 39617U 14011B   25342.78551140  .00000139  00000+0  00000+0 0  9991",
        "tle_line2": "2 39617   0.0549  28.7612 0004539 233.4239 121.8738  1.00270106 42754"
      },
      "geometry": {
        "type": "Point",
        "coordinates": [
          174.57669201895004,
          0.028265335377796855
        ]
      }
    },
    {
      "type": "Feature",
      "properties": {
        "norad_id": 39620,
        "name": "COSMOS 2492 (754)",
        "group": "gnss",
        "lat": -55.94151500993355,
        "lon": -82.24979200444666,
        "alt_km": 19101.34827827738,
        "timestamp": "2025-12-09T04:51:47.737602+00:00",
        "meta_object_name": "COSMOS 2492 (754)",
        "meta_object_id": "2014-012A",
        "meta_epoch": "2025-12-08T08:23:17.785824",
        "meta_mean_motion": 2.13103117,
        "meta_eccentricity": 0.0014207,
        "meta_inclination": 65.4103,
        "meta_ra_of_asc_node": 320.4195,
        "meta_arg_of_pericenter": 311.8365,
        "meta_mean_anomaly": 48.0373,
        "meta_ephemeris_type": 0,
        "meta_classification_type": "U",
        "meta_norad_cat_id": 39620,
        "meta_element_set_no": 999,
        "meta_rev_at_epoch": 9117,
        "meta_bstar": 0,
        "meta_mean_motion_dot": -4.9e-07,
        "meta_mean_motion_ddot": 0,
        "tle_line1": "1 39620U 14012A   25342.34951141 -.00000049  00000+0  00000+0 0  9994",
        "tle_line2": "2 39620  65.4103 320.4195 0014207 311.8365  48.0373  2.13103117 91178"
      },
      "geometry": {
        "type": "Point",
        "coordinates": [
          -82.24979200444666,
          -55.94151500993355
        ]
      }
    },
    {
      "type": "Feature",
      "properties": {
        "norad_id": 39635,
        "name": "IRNSS-1B",
        "group": "gnss",
        "lat": -17.01682301790898,
        "lon": -150.05591353477874,
        "alt_km": 35843.70339520336,
        "timestamp": "2025-12-09T04:51:47.737615+00:00",
        "meta_object_name": "IRNSS-1B",
        "meta_object_id": "2014-017A",
        "meta_epoch": "2025-12-07T19:02:08.350080",
        "meta_mean_motion": 1.00276938,
        "meta_eccentricity": 0.00176548,
        "meta_inclination": 28.8332,
        "meta_ra_of_asc_node": 243.6763,
        "meta_arg_of_pericenter": 183.0277,
        "meta_mean_anomaly": 350.7455,
        "meta_ephemeris_type": 0,
        "meta_classification_type": "U",
        "meta_norad_cat_id": 39635,
        "meta_element_set_no": 999,
        "meta_rev_at_epoch": 4287,
        "meta_bstar": 0,
        "meta_mean_motion_dot": 1.18e-06,
        "meta_mean_motion_ddot": 0,
        "tle_line1": "1 39635U 14017A   25341.79315220  .00000118  00000+0  00000+0 0  9991",
        "tle_line2": "2 39635  28.8332 243.6763 0017654 183.0277 350.7455  1.00276938 42872"
      },
      "geometry": {
        "type": "Point",
        "coordinates": [
          -150.05591353477874,
          -17.01682301790898
        ]
      }
    },
    {
      "type": "Feature",
      "properties": {
        "norad_id": 39727,
        "name": "LUCH 5V (SDCM/PRN 141)",
        "group": "gnss",
        "lat": 0.4404829153318545,
        "lon": -114.08755027671913,
        "alt_km": 35769.700877339805,
        "timestamp": "2025-12-09T04:51:47.737627+00:00",
        "meta_object_name": "LUCH 5V (SDCM/PRN 141)",
        "meta_object_id": "2014-023A",
        "meta_epoch": "2025-12-08T17:28:47.960832",
        "meta_mean_motion": 1.00270251,
        "meta_eccentricity": 0.0004575,
        "meta_inclination": 4.6594,
        "meta_ra_of_asc_node": 71.5729,
        "meta_arg_of_pericenter": 204.2143,
        "meta_mean_anomaly": 158.9163,
        "meta_ephemeris_type": 0,
        "meta_classification_type": "U",
        "meta_norad_cat_id": 39727,
        "meta_element_set_no": 999,
        "meta_rev_at_epoch": 4245,
        "meta_bstar": 0,
        "meta_mean_motion_dot": -2.68e-06,
        "meta_mean_motion_ddot": 0,
        "tle_line1": "1 39727U 14023A   25342.72833288 -.00000268  00000+0  00000+0 0  9990",
        "tle_line2": "2 39727   4.6594  71.5729 0004575 204.2143 158.9163  1.00270251 42452"
      },
      "geometry": {
        "type": "Point",
        "coordinates": [
          -114.08755027671913,
          0.4404829153318545
        ]
      }
    },
    {
      "type": "Feature",
      "properties": {
        "norad_id": 39741,
        "name": "GPS BIIF-6  (PRN 06)",
        "group": "gnss",
        "lat": 29.897924959964175,
        "lon": 136.60111490197846,
        "alt_km": 20282.160791021564,
        "timestamp": "2025-12-09T04:51:47.737639+00:00",
        "meta_object_name": "GPS BIIF-6  (PRN 06)",
        "meta_object_id": "2014-026A",
        "meta_epoch": "2025-12-08T00:09:26.593920",
        "meta_mean_motion": 2.00561568,
        "meta_eccentricity": 0.00390609,
        "meta_inclination": 56.5854,
        "meta_ra_of_asc_node": 338.9605,
        "meta_arg_of_pericenter": 318.4068,
        "meta_mean_anomaly": 41.3073,
        "meta_ephemeris_type": 0,
        "meta_classification_type": "U",
        "meta_norad_cat_id": 39741,
        "meta_element_set_no": 999,
        "meta_rev_at_epoch": 8470,
        "meta_bstar": 0,
        "meta_mean_motion_dot": -8.2e-07,
        "meta_mean_motion_ddot": 0,
        "tle_line1": "1 39741U 14026A   25342.00655780 -.00000082  00000+0  00000+0 0  9993",
        "tle_line2": "2 39741  56.5854 338.9605 0039060 318.4068  41.3073  2.00561568 84701"
      },
      "geometry": {
        "type": "Point",
        "coordinates": [
          136.60111490197846,
          29.897924959964175
        ]
      }
    },
    {
      "type": "Feature",
      "properties": {
        "norad_id": 40001,
        "name": "COSMOS 2500 (755)",
        "group": "gnss",
        "lat": 16.072621111809603,
        "lon": 132.5389838806364,
        "alt_km": 19116.75298174919,
        "timestamp": "2025-12-09T04:51:47.737650+00:00",
        "meta_object_name": "COSMOS 2500 (755)",
        "meta_object_id": "2014-032A",
        "meta_epoch": "2025-12-08T01:15:37.591488",
        "meta_mean_motion": 2.13105896,
        "meta_eccentricity": 0.00081247,
        "meta_inclination": 65.3461,
        "meta_ra_of_asc_node": 320.1922,
        "meta_arg_of_pericenter": 219.298,
        "meta_mean_anomaly": 140.6379,
        "meta_ephemeris_type": 0,
        "meta_classification_type": "U",
        "meta_norad_cat_id": 40001,
        "meta_element_set_no": 999,
        "meta_rev_at_epoch": 8938,
        "meta_bstar": 0,
        "meta_mean_motion_dot": -4.9e-07,
        "meta_mean_motion_ddot": 0,
        "tle_line1": "1 40001U 14032A   25342.05251842 -.00000049  00000+0  00000+0 0  9990",
        "tle_line2": "2 40001  65.3461 320.1922 0008124 219.2980 140.6379  2.13105896 89380"
      },
      "geometry": {
        "type": "Point",
        "coordinates": [
          132.5389838806364,
          16.072621111809603
        ]
      }
    },
    {
      "type": "Feature",
      "properties": {
        "norad_id": 40105,
        "name": "GPS BIIF-7  (PRN 09)",
        "group": "gnss",
        "lat": 54.08971571530933,
        "lon": 169.43263701307808,
        "alt_km": 20107.878737937874,
        "timestamp": "2025-12-09T04:51:47.737661+00:00",
        "meta_object_name": "GPS BIIF-7  (PRN 09)",
        "meta_object_id": "2014-045A",
        "meta_epoch": "2025-12-08T14:13:50.767680",
        "meta_mean_motion": 2.00572212,
        "meta_eccentricity": 0.0032772,
        "meta_inclination": 55.2267,
        "meta_ra_of_asc_node": 96.0644,
        "meta_arg_of_pericenter": 119.7768,
        "meta_mean_anomaly": 240.5333,
        "meta_ephemeris_type": 0,
        "meta_classification_type": "U",
        "meta_norad_cat_id": 40105,
        "meta_element_set_no": 999,
        "meta_rev_at_epoch": 8225,
        "meta_bstar": 0,
        "meta_mean_motion_dot": 0,
        "meta_mean_motion_ddot": 0,
        "tle_line1": "1 40105U 14045A   25342.59294870  .00000000  00000+0  00000+0 0  9992",
        "tle_line2": "2 40105  55.2267  96.0644 0032772 119.7768 240.5333  2.00572212 82256"
      },
      "geometry": {
        "type": "Point",
        "coordinates": [
          169.43263701307808,
          54.08971571530933
        ]
      }
    }
  ]
}